IRIDIUM 57              
1 25273U 98019B   24148.92783688  .00000531  00000+0  17885-3 0  9996
2 25273  86.3932 306.6117 0002072  90.0649 270.0784 14.35224885369519
IRIDIUM 63              
1 25286U 98021B   24148.81989127  .00000564  00000+0  18848-3 0  9993
2 25286  86.4002 243.5414 0002350  92.4322 267.7143 14.35777816368804
IRIDIUM 69              
1 25319U 98026A   24148.80928484  .00000719  00000+0  22206-3 0  9998
2 25319  86.3979 257.9970 0002219 157.5815 202.5481 14.40008072367586
IRIDIUM 71              
1 25320U 98026B   24148.81373967  .00000693  00000+0  21264-3 0  9995
2 25320  86.3983 252.7588 0000197  11.5278 348.5925 14.40322223368106
IRIDIUM 73              
1 25344U 98032C   24148.67532046  .00000706  00000+0  17512-3 0  9993
2 25344  86.4461 210.2931 0002030 107.0865 253.0562 14.50546818374659
IRIDIUM 82              
1 25467U 98051A   24148.92885516  .00008259  00000+0  42219-3 0  9994
2 25467  86.3750 295.3814 0126413 295.5816  63.2399 15.09696668365439
IRIDIUM 2               
1 25527U 98066A   24148.72468489  .00211337  00000+0  97898-3 0  9997
2 25527  85.4980 316.5399 0001409 266.0515  94.0599 15.82911849404688
